[{"OBJECT_NAME":"STARLINK-34360","OBJECT_ID":"2025-123P","EPOCH":"2026-03-09T17:48:44.453088","MEAN_MOTION":14.98336219,"ECCENTRICITY":0.00033342,"INCLINATION":70.0018,"RA_OF_ASC_NODE":194.4297,"ARG_OF_PERICENTER":270.6569,"MEAN_ANOMALY":89.4208,"EPHEMERIS_TYPE":0,"CLASSIFICATION_TYPE":"U","NORAD_CAT_ID":64304,"ELEMENT_SET_NO":999,"REV_AT_EPOCH":4162,"BSTAR":0.00053519531,"MEAN_MOTION_DOT":6.3e-5,"MEAN_MOTION_DDOT":0},{"OBJECT_NAME":"CZ-6A DEB","OBJECT_ID":"2024-140JQ","EPOCH":"2026-03-09T16:05:49.477056","MEAN_MOTION":15.15394204,"ECCENTRICITY":0.00800164,"INCLINATION":89.0638,"RA_OF_ASC_NODE":284.0631,"ARG_OF_PERICENTER":105.771,"MEAN_ANOMALY":255.2376,"EPHEMERIS_TYPE":0,"CLASSIFICATION_TYPE":"U","NORAD_CAT_ID":60861,"ELEMENT_SET_NO":999,"REV_AT_EPOCH":8511,"BSTAR":0.0025246282,"MEAN_MOTION_DOT":0.00051962,"MEAN_MOTION_DDOT":0}]
